NORAD_CAT_ID,OBJECT_NAME,OBJECT_TYPE,EPOCH,MEAN_MOTION,ECCENTRICITY,INCLINATION,RA_OF_ASC_NODE,ARG_OF_PERICENTER,MEAN_ANOMALY,BSTAR,MEAN_MOTION_DOT,MEAN_MOTION_DDOT,TLE_LINE0,TLE_LINE1,TLE_LINE2,SEMIMAJOR_AXIS,PERIOD,APOGEE,PERIGEE,DECAYED
51861.0,STARLINK-3562,PAYLOAD,2022-07-02 14:00:01,15.08855273,0.0001989,53.2146,292.0249,47.5662,314.1802,-0.00064644,-0.00010566,0.0,0 STARLINK-3562,1 51861U 22022K   22183.58334491 -.00010566  00000-0 -64644-3 0  9999,2 51861  53.2146 292.0249 0001989  47.5662 314.1802 15.08855273  1317,6917.834,95.437,541.075,538.323,0.0
51861.0,STARLINK-3562,PAYLOAD,2022-07-02 22:00:00,15.08882693,0.0001952,53.2144,290.5279,45.8928,327.4708,-0.0014288,-0.00022983,0.0,0 STARLINK-3562,1 51861U 22022K   22183.91667824 -.00022983  00000-0 -14288-2 0  9999,2 51861  53.2144 290.5279 0001952  45.8928 327.4708 15.08882693  1304,6917.75,95.435,540.965,538.265,0.0
51861.0,STARLINK-3562,PAYLOAD,2022-07-03 14:00:01,15.08879903,0.0001898,53.2145,287.5355,45.4004,351.2363,-0.0036377,-0.00057782,0.0,0 STARLINK-3562,1 51861U 22022K   22184.58334491 -.00057782  00000-0 -36377-2 0  9992,2 51861  53.2145 287.5355 0001898  45.4004 351.2363 15.08879903  1308,6917.7580000000025,95.435,540.936,538.31,0.0
51861.0,STARLINK-3562,PAYLOAD,2022-07-03 22:00:00,15.0886239,0.000181,53.2141,286.0383,43.5464,4.7033,-0.0054406,-0.00085898,0.0,0 STARLINK-3562,1 51861U 22022K   22184.91667824 -.00085898  00000-0 -54406-2 0  9990,2 51861  53.2141 286.0383 0001810  43.5464   4.7033 15.08862390  1308,6917.812,95.436,540.929,538.425,0.0
51861.0,STARLINK-3562,PAYLOAD,2022-07-04 14:00:01,15.08810601,0.0001875,53.2141,283.0464,45.9031,25.4886,-0.00030038,-5.062e-05,0.0,0 STARLINK-3562,1 51861U 22022K   22185.58334491 -.00005062  00000-0 -30038-3 0  9996,2 51861  53.2141 283.0464 0001875  45.9031  25.4886 15.08810601  1306,6917.97,95.439,541.132,538.538,0.0
51861.0,STARLINK-3562,PAYLOAD,2022-07-04 22:00:00,15.08823502,0.0001771,53.2136,281.5491,44.9704,37.9837,0.0006201,9.59e-05,0.0,0 STARLINK-3562,1 51861U 22022K   22185.91667824  .00009590  00000-0  62010-3 0  9995,2 51861  53.2136 281.5491 0001771  44.9704  37.9837 15.08823502  1302,6917.931,95.439,541.021,538.571,0.0
51861.0,STARLINK-3562,PAYLOAD,2022-07-05 06:00:00,15.08844573,0.0001621,53.2138,280.0518,49.7282,44.7983,0.0017402,0.00027519,0.0,0 STARLINK-3562,1 51861U 22022K   22186.25001157  .00027519  00000-0  17402-2 0  9999,2 51861  53.2138 280.0518 0001621  49.7282  44.7983 15.08844573 20294,6917.866,95.437,540.8530000000002,538.61,0.0
51861.0,STARLINK-3562,PAYLOAD,2022-07-05 14:00:01,15.08856807,0.0001811,53.2135,278.5572,44.3744,61.76600000000001,-0.00037679,-6.283e-05,0.0,0 STARLINK-3562,1 51861U 22022K   22186.58334491 -.00006283  00000-0 -37679-3 0  9991,2 51861  53.2135 278.5572 0001811  44.3744  61.7660 15.08856807  1303,6917.829000000002,95.436,540.947,538.441,0.0
51861.0,STARLINK-3562,PAYLOAD,2022-07-05 22:00:00,15.08864702,0.0001773,53.2131,277.0595,46.3738,71.3747,-0.0037708,-0.00059843,0.0,0 STARLINK-3562,1 51861U 22022K   22186.91667824 -.00059843  00000-0 -37708-2 0  9999,2 51861  53.2131 277.0595 0001773  46.3738  71.3747 15.08864702  1306,6917.805,95.436,540.896,538.443,0.0
51861.0,STARLINK-3562,PAYLOAD,2022-07-06 14:00:01,15.08829062,0.0001905,53.2131,274.0676,47.0048,93.9346,0.00061086,9.444e-05,0.0,0 STARLINK-3562,1 51861U 22022K   22187.58334491  .00009444  00000-0  61086-3 0  9991,2 51861  53.2131 274.0676 0001905  47.0048  93.9346 15.08829062 20498,6917.9140000000025,95.438,541.097,538.461,0.0
51861.0,STARLINK-3562,PAYLOAD,2022-07-06 22:00:00,15.08855908,0.0001821,53.2128,272.5699,47.624,104.9024,-0.0017570999999999,-0.00028156,0.0,0 STARLINK-3562,1 51861U 22022K   22187.91667824 -.00028156  00000-0 -17571-2 0  9999,2 51861  53.2128 272.5699 0001821  47.6240 104.9024 15.08855908  1302,6917.831999999999,95.437,540.957,538.437,0.0
51861.0,STARLINK-3562,PAYLOAD,2022-07-07 13:13:28,15.08849501,0.000185,53.2148,269.7213,48.6376,311.4775,1.5502e-05,-4.1e-07,0.0,0 STARLINK-3562,1 51861U 22022K   22188.55102913 -.00000041  00000-0  15502-4 0  9999,2 51861  53.2148 269.7213 0001850  48.6376 311.4775 15.08849501 20566,6917.851,95.437,540.996,538.437,0.0
51861.0,STARLINK-3562,PAYLOAD,2022-07-07 22:00:00,15.08875924,0.0001817,53.2131,268.08,46.2856,141.0528,-0.0046413,-0.00073475,0.0,0 STARLINK-3562,1 51861U 22022K   22188.91667824 -.00073475  00000-0 -46413-2 0  9991,2 51861  53.2131 268.0800 0001817  46.2856 141.0528 15.08875924 20697,6917.771,95.435,540.893,538.379,0.0
51861.0,STARLINK-3562,PAYLOAD,2022-07-08 06:00:02,15.0883856,0.0001776,53.2134,266.583,50.1186,148.8859,0.00039793,6.05e-05,0.0,0 STARLINK-3562,1 51861U 22022K   22189.25002315  .00006050  00000-0  39793-3 0  9994,2 51861  53.2134 266.5830 0001776  50.1186 148.8859 15.08838560 20743,6917.885,95.438,540.9780000000002,538.521,0.0
51861.0,STARLINK-3562,PAYLOAD,2022-07-08 14:00:01,15.08843686,0.0001983,53.2134,265.0881,42.7938,167.7795,0.0026272,0.00041777,0.0,0 STARLINK-3562,1 51861U 22022K   22189.58334491  .00041777  00000-0  26272-2 0  9995,2 51861  53.2134 265.0881 0001983  42.7938 167.7795 15.08843686 20794,6917.869000000002,95.437,541.106,538.362,0.0
51861.0,STARLINK-3562,PAYLOAD,2022-07-08 22:00:01,15.08895407,0.0001828,53.2135,263.59,43.7696,178.4825,-0.0029905,-0.0004763999999999,0.0,0 STARLINK-3562,1 51861U 22022K   22189.91668981 -.00047640  00000-0 -29905-2 0  9999,2 51861  53.2135 263.5900 0001828  43.7696 178.4825 15.08895407  1307,6917.7109999999975,95.434,540.841,538.311,0.0
51861.0,STARLINK-3562,PAYLOAD,2022-07-09 06:00:00,15.08897102,0.0001658,53.2156,262.0919,43.2622,190.4802,-0.01152,-0.00179381,0.0,0 STARLINK-3562,1 51861U 22022K   22190.25001157 -.00179381  00000-0 -11520-1 0  9995,2 51861  53.2156 262.0919 0001658  43.2622 190.4802 15.08897102 20897,6917.706,95.434,540.7180000000002,538.424,0.0
51861.0,STARLINK-3562,PAYLOAD,2022-07-09 14:00:01,15.08826879,0.0001961,53.2139,260.5986,40.2797,205.0702,0.0014360999999999,0.00022633,0.0,0 STARLINK-3562,1 51861U 22022K   22190.58334491  .00022633  00000-0  14361-2 0  9993,2 51861  53.2139 260.5986 0001961  40.2797 205.0702 15.08826879  1302,6917.92,95.438,541.1419999999998,538.429,0.0
51861.0,STARLINK-3562,PAYLOAD,2022-07-09 16:00:00,15.08832933,0.0001943,53.2137,260.2245,38.9904,299.2558,0.00074715,0.00011621,0.0,0 STARLINK-3562,1 51861U 22022K   22190.66667824  .00011621  00000-0  74715-3 0  9996,2 51861  53.2137 260.2245 0001943  38.9904 299.2558 15.08832933 20953,6917.901999999999,95.438,541.111,538.423,0.0
51861.0,STARLINK-3562,PAYLOAD,2022-07-09 20:00:01,15.0886154,0.0001898,53.2138,259.4753,41.5927,122.4438,-0.0043176,-0.00068392,0.0,0 STARLINK-3562,1 51861U 22022K   22190.83334491 -.00068392  00000-0 -43176-2 0  9991,2 51861  53.2138 259.4753 0001898  41.5927 122.4438 15.08861540  1300,6917.815,95.436,540.993,538.367,0.0
51861.0,STARLINK-3562,PAYLOAD,2022-07-10 06:00:00,15.08837539,0.0001816,53.2153,257.603,48.2075,220.3111,-0.0015132,-0.00024289,0.0,0 STARLINK-3562,1 51861U 22022K   22191.25001157 -.00024289  00000-0 -15132-2 0  9996,2 51861  53.2153 257.6030 0001816  48.2075 220.3111 15.08837539 21043,6917.888000000001,95.438,541.009,538.497,0.0
51861.0,STARLINK-3562,PAYLOAD,2022-07-10 14:00:01,15.08802988,0.0002072,53.2141,256.1094,42.7618,237.3393,0.0024842,0.0003943,0.0,0 STARLINK-3562,1 51861U 22022K   22191.58334491  .00039430  00000-0  24842-2 0  9992,2 51861  53.2141 256.1094 0002072  42.7618 237.3393 15.08802988  1308,6917.994000000002,95.44,541.2919999999998,538.425,0.0
51861.0,STARLINK-3562,PAYLOAD,2022-07-10 22:00:00,15.08831629,0.0001901,53.2141,254.6115,45.1953,246.4777,-0.00052581,-8.645e-05,0.0,0 STARLINK-3562,1 51861U 22022K   22191.91667824 -.00008645  00000-0 -52581-3 0  9996,2 51861  53.2141 254.6115 0001901  45.1953 246.4777 15.08831629 21149,6917.906,95.438,541.086,538.456,0.0
51861.0,STARLINK-3562,PAYLOAD,2022-07-11 14:00:01,15.08818845,0.0002066,53.2139,251.6203,43.0898,271.763,0.002645,0.00042035,0.0,0 STARLINK-3562,1 51861U 22022K   22192.58334491  .00042035  00000-0  26450-2 0  9995,2 51861  53.2139 251.6203 0002066  43.0898 271.7630 15.08818845  1309,6917.945,95.439,541.239,538.381,0.0
51861.0,STARLINK-3562,PAYLOAD,2022-07-11 22:00:00,15.08841359,0.0001887,53.2137,250.1223,46.4037,280.0406,5.4277e-05,5.76e-06,0.0,0 STARLINK-3562,1 51861U 22022K   22192.91667824  .00000576  00000-0  54277-4 0  9995,2 51861  53.2137 250.1223 0001887  46.4037 280.0406 15.08841359 21295,6917.876,95.437,541.047,538.436,0.0
51861.0,STARLINK-3562,PAYLOAD,2022-07-12 14:00:01,15.08850686,0.0002001,53.2133,247.1311,42.465,307.1998,-0.00032203,-5.411e-05,0.0,0 STARLINK-3562,1 51861U 22022K   22193.58334491 -.00005411  00000-0 -32203-3 0  9999,2 51861  53.2133 247.1311 0002001  42.4650 307.1998 15.08850686  1301,6917.848000000001,95.437,541.097,538.328,0.0
51861.0,STARLINK-3562,PAYLOAD,2022-07-12 22:00:00,15.08831647,0.0001785,53.2138,245.6329,45.2264,316.0523,0.00098352,0.00015396,0.0,0 STARLINK-3562,1 51861U 22022K   22193.91667824  .00015396  00000-0  98352-3 0  9993,2 51861  53.2138 245.6329 0001785  45.2264 316.0523 15.08831647  1318,6917.906,95.438,541.006,538.536,0.0
51861.0,STARLINK-3562,PAYLOAD,2022-07-13 06:00:00,15.08872425,0.0001776999999999,53.2146,244.137,45.8113,327.0496,-0.0029946,-0.00047675,0.0,0 STARLINK-3562,1 51861U 22022K   22194.25001157 -.00047675  00000-0 -29946-2 0  9991,2 51861  53.2146 244.1370 0001777  45.8113 327.0496 15.08872425 21498,6917.781,95.436,540.876,538.4169999999998,0.0
51861.0,STARLINK-3562,PAYLOAD,2022-07-13 14:00:01,15.08807834,0.00019,53.2142,242.6419,39.6054,344.8737,0.0021975,0.00034828,0.0,0 STARLINK-3562,1 51861U 22022K   22194.58334491  .00034828  00000-0  21975-2 0  9995,2 51861  53.2142 242.6419 0001900  39.6054 344.8737 15.08807834  1309,6917.979,95.44,541.158,538.529,0.0
